[{"OBJECT_NAME":"STARLINK-33668","OBJECT_ID":"2025-065D","EPOCH":"2026-03-09T11:02:56.243616","MEAN_MOTION":15.27588199,"ECCENTRICITY":0.00014423,"INCLINATION":42.9904,"RA_OF_ASC_NODE":108.4811,"ARG_OF_PERICENTER":73.3421,"MEAN_ANOMALY":286.7589,"EPHEMERIS_TYPE":0,"CLASSIFICATION_TYPE":"U","NORAD_CAT_ID":63402,"ELEMENT_SET_NO":999,"REV_AT_EPOCH":5280,"BSTAR":0.00081705876,"MEAN_MOTION_DOT":0.00022295,"MEAN_MOTION_DDOT":0},{"OBJECT_NAME":"OV1-9","OBJECT_ID":"1966-111A","EPOCH":"2026-03-09T00:15:54.647424","MEAN_MOTION":10.39800663,"ECCENTRICITY":0.22726318,"INCLINATION":99.101,"RA_OF_ASC_NODE":280.6949,"ARG_OF_PERICENTER":170.5316,"MEAN_ANOMALY":194.7407,"EPHEMERIS_TYPE":0,"CLASSIFICATION_TYPE":"U","NORAD_CAT_ID":2610,"ELEMENT_SET_NO":999,"REV_AT_EPOCH":22262,"BSTAR":0.0003053363,"MEAN_MOTION_DOT":7.59e-6,"MEAN_MOTION_DDOT":0}]
